1 41189U 15081L   16038.09195769 -.00001448  00000-0 -16979-3 0  9996,2 41189  46.9991 133.3783 0026575 241.2858 118.5911 14.77836835  6965
1 41189U 15081L   16039.03842943  .00001089  00000-0  17708-3 0  9994,2 41189  46.9999 128.7675 0026362 246.2884 113.5393 14.77847394  7107
1 41189U 15081L   16040.05251188  .00001157  00000-0  18643-3 0  9998,2 41189  46.9995 123.8243 0026408 250.9712 108.8345 14.77850427  7254
1 41189U 15081L   16041.20180561  .00001343  00000-0  21181-3 0  9990,2 41189  47.0006 118.2247 0026423 256.3987 103.3977 14.77854742  7426
1 41189U 15081L   16042.21588707  .00001355  00000-0  21337-3 0  9992,2 41189  47.0009 113.2824 0026442 261.1142  98.6793 14.77857959  7574
1 41189U 15081L   16043.50038793  .00001228  00000-0  19606-3 0  9995,2 41189  47.0010 107.0233 0026543 267.2900  92.4949 14.77860857  7769
1 41189U 15081L   16044.51446537  .00001470  00000-0  22910-3 0  9997,2 41189  47.0011 102.0800 0026564 272.2038  87.5857 14.77865096  7916
1 41189U 15081L   16045.52854149  .00001299  00000-0  20568-3 0  9997,2 41189  46.9998  97.1381 0026569 277.1130  82.6745 14.77867193  8067
1 41189U 15081L   16046.54261604  .00001165  00000-0  18741-3 0  9990,2 41189  46.9997  92.1951 0026631 282.0861  77.7053 14.77869508  8216
1 41189U 15081L   16047.21866403 -.00010899  00000-0 -14655-2 0  9998,2 41189  46.9917  88.8936 0026889 280.7202  78.6734 14.77792123  8317
1 41189U 15081L   16049.58678203  .00001132  00000-0  19033-3 0  9993,2 41189  47.0020  77.3852 0019459 287.3796  72.4969 14.76148067  8661
1 41189U 15081L   16052.42950208  .00000828  00000-0  14697-3 0  9990,2 41189  47.0030  63.5670 0019367 300.7005  59.1987 14.76152881  9086
1 41189U 15081L   16052.83560398 +.00000847 +00000-0 +14965-3 0  9991,2 41189 047.0030 061.5926 0019379 302.6777 057.2246 14.76153814009149
1 41189U 15081L   16053.85085896  .00000789  00000-0  14134-3 0  9992,2 41189  47.0029  56.6568 0019414 307.8866  52.0273 14.76155563  9292
1 41189U 15081L   16055.00148155  .00000508  00000-0  10131-3 0  9991,2 41189  47.0030  51.0654 0019202 312.8659  47.0635 14.76155948  9462
1 41189U 15081L   16056.01673552  .00000371  00000-0  81710-4 0  9997,2 41189  47.0035  46.1312 0019142 317.4981  42.4421 14.76156559  9613
1 41189U 15081L   16057.09967276  .00000345  00000-0  78084-4 0  9996,2 41189  47.0039  40.8672 0019179 322.6814  37.2748 14.76157761  9777
1 41189U 15081L   16058.31797545  .00000470  00000-0  95858-4 0  9999,2 41189  47.0040  34.9453 0019183 328.4872  31.4872 14.76159863  9952
1 41189U 15081L   16059.33322653  .00000491  00000-0  98866-4 0  9991,2 41189  47.0042  30.0110 0019142 333.0668  26.9214 14.76161295 10101
1 41189U 15081L   16060.34847782  .00000456  00000-0  93849-4 0  9996,2 41189  47.0045  25.0777 0019168 337.9720  22.0340 14.76162524 10256
1 41189U 15081L   16060.88994481 +.00000472 +00000-0 +96234-4 0  9993,2 41189 047.0045 022.4452 0019154 340.4170 019.6011 14.76163405010335
1 41189U 15081L   16061.36372774  .00000501  00000-0  10028-3 0  9991,2 41189  47.0045  20.1418 0019154 342.6517  17.3724 14.76163897 10400
1 41189U 15081L   16061.83751059 +.00000381 +00000-0 +83273-4 0  9999,2 41189 047.0051 017.8397 0019003 344.7274 015.3025 14.76164081010477
1 41189U 15081L   16062.78507608  .00000541  00000-0  10599-3 0  9991,2 41189  47.0055  13.2348 0018959 349.0326  11.0170 14.76166228 10617
1 41189U 15081L   16063.93568858  .00000650  00000-0  12163-3 0  9993,2 41189  47.0054   7.6429 0018751 353.9858   6.0833 14.76168711 10784
1 41189U 15081L   16064.95093396  .00000626  00000-0  11809-3 0  9995,2 41189  47.0053   2.7084 0018593 358.4415   1.6423 14.76170117 10935
1 41189U 15081L   16066.03385949  .00000675  00000-0  12521-3 0  9990,2 41189  47.0045 357.4445 0018463   3.4747 356.6225 14.76172441 11091
1 41189U 15081L   16067.18447016  .00000756  00000-0  13663-3 0  9999,2 41189  47.0040 351.8542 0018580   9.3410 350.7841 14.76174726 11260
1 41189U 15081L   16068.19971091  .00000974  00000-0  16772-3 0  9992,2 41189  47.0046 346.9198 0018627  14.5311 345.6125 14.76177913 11414
1 41189U 15081L   16069.21494819  .00001178  00000-0  19685-3 0  9997,2 41189  47.0052 341.9851 0018470  19.4926 340.6668 14.76181677 11569
1 41189U 15081L   16070.23018460  .00001236  00000-0  20506-3 0  9994,2 41189  47.0059 337.0509 0018510  24.3472 335.8285 14.76184676 11718
1 41189U 15081L   16070.90700750 +.00001119 +00000-0 +18836-3 0  9991,2 41189 047.0062 333.7604 0018420 027.6520 332.5334 14.76186038011815
1 41189U 15081L   16071.71919488  .00000871  00000-0  15304-3 0  9992,2 41189  47.0052 329.8136 0018376  31.6117 328.5858 14.76186936 11933
1 41189U 15081L   16072.80211130  .00000532  00000-0  10468-3 0  9992,2 41189  47.0052 324.5491 0018388  36.7919 323.4192 14.76187007 12091
1 41189U 15081L   16074.08807423  .00000296  00000-0  71094-4 0  9990,2 41189  47.0043 318.3003 0018414  42.8464 317.3841 14.76187388 12280
1 41189U 15081L   16075.10330678  .00000361  00000-0  80349-4 0  9993,2 41189  47.0034 313.3675 0018332  48.0096 312.2370 14.76188630 12437
1 41189U 15081L   16076.11853734  .00000410  00000-0  87324-4 0  9993,2 41189  47.0043 308.4327 0018395  52.8688 307.3883 14.76190114 12585
1 41189U 15081L   16077.13376651  .00000544  00000-0  10645-3 0  9993,2 41189  47.0047 303.4990 0018418  57.8775 302.3902 14.76192188 12735
1 41189U 15081L   16077.74290330 +.00000562 +00000-0 +10894-3 0  9995,2 41189 047.0048 300.5374 0018393 060.8412 299.4324 14.76193180012821
1 41189U 15081L   16078.82581156  .00000521  00000-0  10315-3 0  9997,2 41189  47.0055 295.2724 0018375  66.0879 294.1914 14.76194672 12984
1 41189U 15081L   16079.84103823  .00000480  00000-0  97288-4 0  9990,2 41189  47.0041 290.3413 0018392  70.9167 289.3697 14.76195764 13138
1 41189U 15081L   16080.99162669  .00000469  00000-0  95695-4 0  9998,2 41189  47.0048 284.7470 0018402  76.0764 284.2186 14.76197335 13309
1 41189U 15081L   16081.66844197 +.00000450 +00000-0 +93058-4 0  9997,2 41189 047.0050 281.4563 0018373 079.4079 280.8878 14.76198172013403
1 41189U 15081L   16082.61598373  .00000327  00000-0  75506-4 0  9996,2 41189  47.0051 276.8513 0018417  83.6528 276.6430 14.76198642 13546
1 41189U 15081L   16082.88671032 +.00000426 +00000-0 +89654-4 0  9998,2 41189 047.0037 275.5369 0018413 084.9137 275.3883 14.76199512013580
1 41189U 15081L   16083.90193105  .00000473  00000-0  96276-4 0  9992,2 41189  47.0050 270.5951 0018386  89.6046 270.6995 14.76201153 13731
1 41189U 15081L   16085.32324231  .00000407  00000-0  86818-4 0  9994,2 41189  46.9998 263.6945 0017886  97.5104 262.7956 14.76201170 13944
1 41189U 15081L   16085.72932685 +.00000243 +00000-0 +63477-4 0  9990,2 41189 047.0000 261.7208 0017772 100.4464 259.8421 14.76200796014003
1 41189U 15081L   16086.47382135  .00000168  00000-0  52788-4 0  9991,2 41189  46.9990 258.1026 0017576 104.1373 256.1452 14.76200771 14118
1 41189U 15081L   16086.67686567 -.00000130 +00000-0 +10379-4 0  9999,2 41189 047.0002 257.1123 0017719 104.9264 255.3537 14.76199645014142
1 41189U 15081L   16087.62440457  .00000142  00000-0  49067-4 0  9999,2 41189  47.0002 252.5079 0017808 108.7658 251.5152 14.76201489 14285
1 41189U 15081L   16088.63962162  .00000152  00000-0  50585-4 0  9991,2 41189  47.0011 247.5720 0017818 113.9189 246.3506 14.76202488 14432
1 41189U 15081L   16088.91034765 +.00000214 +00000-0 +59303-4 0  9997,2 41189 047.0011 246.2555 0017855 115.3696 244.9069 14.76203005014472
1 41189U 15081L   16090.39933060  .00000553  00000-0  10759-3 0  9995,2 41189  47.0011 239.0180 0017868 123.0981 237.1691 14.76206582 14695
1 41189U 15081L   16091.54990730  .00000207  00000-0  58357-4 0  9993,2 41189  47.0019 233.4292 0018242 129.4830 230.7656 14.76205994 14860
1 41189U 15081L   16091.75295069 +.00000483 +00000-0 +97620-4 0  9991,2 41189 047.0014 232.4448 0018290 131.2702 228.9798 14.76207405014897
1 41189U 15081L   16092.76816411  .00000658  00000-0  12257-3 0  9999,2 41189  47.0029 227.5146 0018176 135.4736 224.7631 14.76209760 15043
1 41189U 15081L   16093.78337720  .00000632  00000-0  11896-3 0  9993,2 41189  47.0031 222.5795 0018562 139.9970 220.2335 14.76210905 15190
1 41189U 15081L   16094.79858859  .00000345  00000-0  78058-4 0  9991,2 41189  47.0030 217.6453 0018458 144.2315 215.9810 14.76211057 15346
1 41189U 15081L   16095.81379911  .00000310  00000-0  73074-4 0  9997,2 41189  47.0026 212.7093 0018491 148.8639 211.3354 14.76212125 15499
1 41189U 15081L   16097.09973084  .00000449  00000-0  92749-4 0  9993,2 41189  47.0024 206.4570 0018479 154.5386 205.6421 14.76214134 15680
1 41189U 15081L   16098.11493903  .00000346  00000-0  78090-4 0  9993,2 41189  47.0033 201.5220 0018621 159.8703 200.2937 14.76214880 15836
1 41189U 15081L   16099.46854790  .00000431  00000-0  90249-4 0  9992,2 41189  47.0037 194.9430 0018535 166.3720 193.7672 14.76217068 16030
1 41189U 15081L   16099.53622839 +.00000456 +00000-0 +93824-4 0  9996,2 41189 047.0037 194.6137 0018510 166.7940 193.3443 14.76217207016040
1 41189U 15081L   16100.61911388  .00000546  00000-0  10658-3 0  9991,2 41189  47.0035 189.3508 0018590 172.0385 188.0805 14.76219141 16202
1 41189U 15081L   16102.10808035  .00000530  00000-0  10438-3 0  9990,2 41189  47.0037 182.1124 0018602 178.9677 181.1277 14.76221256 16423
1 41189U 15081L   16103.19096414  .00000482  00000-0  97428-4 0  9991,2 41189  47.0045 176.8497 0018789 183.7696 176.3087 14.76222415 16586
1 41189U 15081L   16104.47688779  .00000368  00000-0  81169-4 0  9992,2 41189  47.0034 170.6009 0018680 190.0998 169.9514 14.76223060 16772
1 41189U 15081L   16104.54456806 +.00000379 +00000-0 +82774-4 0  9999,2 41189 047.0032 170.2714 0018676 190.4756 169.5752 14.76223141016781
1 41189U 15081L   16105.55976974  .00000424  00000-0  89213-4 0  9990,2 41189  47.0023 165.3377 0018702 195.1163 164.9177 14.76224496 16936
1 41189U 15081L   16106.98104982  .00000568  00000-0  10976-3 0  9998,2 41189  47.0019 158.4281 0018714 201.8277 158.1825 14.76227041 17140
